O3B FM20                
1 44112U 19020A   26116.64022822 -.00000027  00000+0  00000+0 0  9994
2 44112   0.0532   1.3328 0002587  24.1404 334.5380  5.00115510128991
O3B FM19                
1 44113U 19020B   26111.67003593 -.00000022  00000+0  00000+0 0  9992
2 44113   0.0716 348.2754 0003491  26.5306 345.2041  5.00115966128611
O3B FM17                
1 44114U 19020C   26116.34762779 -.00000027  00000+0  00000+0 0  9995
2 44114   0.0341 355.1410 0002611  37.3518 327.5216  5.00115502128938
O3B FM18                
1 44115U 19020D   26116.49383057 -.00000027  00000+0  00000+0 0  9990
2 44115   0.0536   1.4893 0002733  35.3839 323.1440  5.00115269129066
SALSAT                  
1 46495U 20068K   26116.45847697  .00009547  00000+0  34104-3 0  9999
2 46495  97.8864 116.4064 0011542 119.6725 240.5665 15.29015639307456
O3B MPOWER F1           
1 54755U 22174A   26116.85029656 -.00000027  00000+0  00000+0 0  9997
2 54755   0.0597 347.2861 0005894  65.4202  89.0618  5.00114871 62798
O3B MPOWER F2           
1 54756U 22174B   26116.73822294 -.00000027  00000+0  00000+0 0  9994
2 54756   0.0562 344.9587 0005940  48.7072 326.3703  5.00115334 62866
O3B MPOWER F4           
1 56367U 23059A   26116.60264670 -.00000027  00000+0  00000+0 0  9991
2 56367   0.0649   2.5883 0007262  44.9517 312.5198  5.00115901 56025
O3B MPOWER F3           
1 56368U 23059B   26116.63591684 -.00000027  00000+0  00000+0 0  9993
2 56368   0.0660   2.2925 0006658  35.5940 322.1589  5.00116609 52154
O3B MPOWER F9           
1 64866U 25153A   26116.40424748 -.00000027  00000+0  00000+0 0  9993
2 64866   0.0540  15.2057 0005562  45.2030 299.6452  5.00116073 16965
O3B MPOWER F10          
1 64867U 25153B   26116.37014564 -.00000027  00000+0  00000+0 0  9991
2 64867   0.0539  10.3193 0002840 262.4804  87.1662  5.00114940 19449
